NORAD_CAT_ID,OBJECT_NAME,OBJECT_TYPE,EPOCH,MEAN_MOTION,ECCENTRICITY,INCLINATION,RA_OF_ASC_NODE,ARG_OF_PERICENTER,MEAN_ANOMALY,BSTAR,MEAN_MOTION_DOT,MEAN_MOTION_DDOT,TLE_LINE0,TLE_LINE1,TLE_LINE2,SEMIMAJOR_AXIS,PERIOD,APOGEE,PERIGEE,DECAYED
55288.0,STARLINK-5311,PAYLOAD,2024-07-12 22:31:42,14.98300136,0.0002926,70.0005,109.2361,266.8306,93.2518,0.00045984,5.394e-05,0.0,0 STARLINK-5311,1 55288U 23010V   24194.93869158  .00005394  00000-0  45984-3 0  9997,2 55288  70.0005 109.2361 0002926 266.8306  93.2518 14.98300136 82681,6950.285,96.109,574.184,570.117,0.0
55288.0,STARLINK-5311,PAYLOAD,2024-07-13 11:20:46,14.98329892,0.0002627,70.0006,107.8895,267.9362,92.1497,-9.2408e-06,-2.03e-06,0.0,0 STARLINK-5311,1 55288U 23010V   24195.47276390 -.00000203  00000-0 -92408-5 0  9998,2 55288  70.0006 107.8895 0002627 267.9362  92.1497 14.98329892 82459,6950.193,96.107,573.884,570.232,0.0
55288.0,STARLINK-5311,PAYLOAD,2024-07-13 22:33:43,14.98331633,0.0002694,70.0003,106.7112,266.9746,93.1105,-1.4861e-05,-2.7e-06,0.0,0 STARLINK-5311,1 55288U 23010V   24195.94008244 -.00000270  00000-0 -14861-4 0  9991,2 55288  70.0003 106.7112 0002694 266.9746  93.1105 14.98331633 82830,6950.188,96.107,573.925,570.18,0.0
55288.0,STARLINK-5311,PAYLOAD,2024-07-14 11:22:47,14.98337639,0.0002798,70.0002,105.3646,267.7653,92.3186,-9.989e-05,-1.285e-05,0.0,0 STARLINK-5311,1 55288U 23010V   24196.47415929 -.00001285  00000-0 -99890-4 0  9994,2 55288  70.0002 105.3646 0002798 267.7653  92.3186 14.98337639 82604,6950.169,96.107,573.979,570.09,0.0
55288.0,STARLINK-5311,PAYLOAD,2024-07-14 22:35:44,14.98327088,0.0002844,70.0003,104.1864,268.5136,91.5697,6.3325e-05,6.63e-06,0.0,0 STARLINK-5311,1 55288U 23010V   24196.94148197  .00000663  00000-0  63325-4 0  9997,2 55288  70.0003 104.1864 0002844 268.5136  91.5697 14.98327088 82987,6950.202,96.107,574.044,570.09,0.0
55288.0,STARLINK-5311,PAYLOAD,2024-07-15 11:24:48,14.98330101,0.0002641,70.001,102.8376,274.0182,86.0675,5.3659e-07,-8.7e-07,0.0,0 STARLINK-5311,1 55288U 23010V   24197.47556193 -.00000087  00000-0  53659-6 0  9997,2 55288  70.0010 102.8376 0002641 274.0182  86.0675 14.98330101 82756,6950.193,96.107,573.893,570.222,0.0
55288.0,STARLINK-5311,PAYLOAD,2024-07-15 22:37:45,14.9832394,0.0002805,70.0002,101.6594,272.3459,87.7379,-2.5418e-05,-3.96e-06,0.0,0 STARLINK-5311,1 55288U 23010V   24197.94288625 -.00000396  00000-0 -25418-4 0  9995,2 55288  70.0002 101.6594 0002805 272.3459  87.7379 14.98323940 83131,6950.212,96.107,574.026,570.127,0.0
55288.0,STARLINK-5311,PAYLOAD,2024-07-16 03:26:09,14.98322349,0.0002619,70.0004,101.155,262.6122,97.4739,-5.1993e-05,-7.13e-06,0.0,0 STARLINK-5311,1 55288U 23010V   24198.14316862 -.00000713  00000-0 -51993-4 0  9993,2 55288  70.0004 101.1550 0002619 262.6122  97.4739 14.98322349 82850,6950.217,96.107,573.902,570.261,0.0
55288.0,STARLINK-5311,PAYLOAD,2024-07-16 21:03:37,14.98334467,0.0002926,70.0003,99.3035,272.9616,87.1208,7.3818e-05,7.88e-06,0.0,0 STARLINK-5311,1 55288U 23010V   24198.87751725  .00000788  00000-0  73818-4 0  9994,2 55288  70.0003  99.3035 0002926 272.9616  87.1208 14.98334467 82961,6950.179,96.107,574.078,570.01,0.0
55288.0,STARLINK-5311,PAYLOAD,2024-07-16 22:39:45,14.98335262,0.0002922,70.0003,99.1352,272.9944,87.0881,8.1123e-05,8.75e-06,0.0,0 STARLINK-5311,1 55288U 23010V   24198.94427639  .00000875  00000-0  81123-4 0  9991,2 55288  70.0003  99.1352 0002922 272.9944  87.0881 14.98335262 83287,6950.177,96.107,574.072,570.011,0.0
55288.0,STARLINK-5311,PAYLOAD,2024-07-17 03:28:08,14.98346036,0.0002926,70.0002,98.6305,273.283,86.7995,0.00016082,1.827e-05,0.0,0 STARLINK-5311,1 55288U 23010V   24199.14454605  .00001827  00000-0  16082-3 0  9996,2 55288  70.0002  98.6305 0002926 273.2830  86.7995 14.98346036 83003,6950.143,96.106,574.042,569.975,0.0
55288.0,STARLINK-5311,PAYLOAD,2024-07-17 21:05:39,14.98319947,0.0002568,70.0019,96.7828,261.5262,98.5606,3.562e-05,3.32e-06,0.0,0 STARLINK-5311,1 55288U 23010V   24199.87892454  .00000332  00000-0  35620-4 0  9994,2 55288  70.0019  96.7828 0002568 261.5262  98.5606 14.98319947 83114,6950.224,96.108,573.874,570.304,0.0
55288.0,STARLINK-5311,PAYLOAD,2024-07-17 22:41:47,14.98319963,0.000253,70.0018,96.6141,260.986,99.1013,1.7591e-05,1.17e-06,0.0,0 STARLINK-5311,1 55288U 23010V   24199.94568540  .00000117  00000-0  17591-4 0  9996,2 55288  70.0018  96.6141 0002530 260.9860  99.1013 14.98319963 83438,6950.224,96.108,573.847,570.331,0.0
55288.0,STARLINK-5311,PAYLOAD,2024-07-18 09:54:43,14.98349968,0.0002257,70.002,95.4366,258.3965,101.694,-0.00054534,-6.597e-05,0.0,0 STARLINK-5311,1 55288U 23010V   24200.41300187 -.00006597  00000-0 -54534-3 0  9999,2 55288  70.0020  95.4366 0002257 258.3965 101.6940 14.98349968 83199,6950.131,96.106,573.565,570.427,0.0
55288.0,STARLINK-5311,PAYLOAD,2024-07-18 21:07:40,14.98331784,0.0002611,70.0001,94.255,270.0329,90.0531,-0.00010474,-1.342e-05,0.0,0 STARLINK-5311,1 55288U 23010V   24200.88032440 -.00001342  00000-0 -10474-3 0  9992,2 55288  70.0001  94.2550 0002611 270.0329  90.0531 14.98331784 83261,6950.187,96.107,573.867,570.238,0.0
55288.0,STARLINK-5311,PAYLOAD,2024-07-18 22:43:48,14.98332212,0.0002586,70.0002,94.0868,270.1218,89.9645,-9.8778e-05,-1.271e-05,0.0,0 STARLINK-5311,1 55288U 23010V   24200.94708395 -.00001271  00000-0 -98778-4 0  9993,2 55288  70.0002  94.0868 0002586 270.1218  89.9645 14.98332212 83586,6950.186,96.107,573.848,570.254,0.0
55288.0,STARLINK-5311,PAYLOAD,2024-07-19 03:32:11,14.98336995,0.0002468,70.0004,93.5828,260.7388,99.3492,-4.2065e-05,-5.95e-06,0.0,0 STARLINK-5311,1 55288U 23010V   24201.14735842 -.00000595  00000-0 -42065-4 0  9999,2 55288  70.0004  93.5828 0002468 260.7388  99.3492 14.98336995 83307,6950.171,96.107,573.752,570.321,0.0
55288.0,STARLINK-5311,PAYLOAD,2024-07-19 09:56:44,14.98332077,0.0002477,70.0003,92.9088,263.2943,96.7934,-7.5624e-05,-9.95e-06,0.0,0 STARLINK-5311,1 55288U 23010V   24201.41440196 -.00000995  00000-0 -75624-4 0  9995,2 55288  70.0003  92.9088 0002477 263.2943  96.7934 14.98332077 83659,6950.186,96.107,573.773,570.33,0.0
55288.0,STARLINK-5311,PAYLOAD,2024-07-19 21:09:40,14.98317478,0.0002452,70.0002,91.7304,264.7879,95.3,0.00020961,2.408e-05,0.0,0 STARLINK-5311,1 55288U 23010V   24201.88172354  .00002408  00000-0  20961-3 0  9996,2 55288  70.0002  91.7304 0002452 264.7879  95.3000 14.98317478 83414,6950.232,96.108,573.801,570.392,0.0
55288.0,STARLINK-5311,PAYLOAD,2024-07-19 22:45:48,14.98323119,0.0002466,70.0002,91.5622,264.9734,95.1143,0.0001403,1.581e-05,0.0,0 STARLINK-5311,1 55288U 23010V   24201.94848239  .00001581  00000-0  14030-3 0  9996,2 55288  70.0002  91.5622 0002466 264.9734  95.1143 14.98323119 83732,6950.214,96.107,573.793,570.365,0.0
55288.0,STARLINK-5311,PAYLOAD,2024-07-20 03:34:12,14.98330894,0.0002437,70.0002,91.057,265.6449,94.4432,0.00013763,1.55e-05,0.0,0 STARLINK-5311,1 55288U 23010V   24202.14875793  .00001550  00000-0  13763-3 0  9992,2 55288  70.0002  91.0570 0002437 265.6449  94.4432 14.98330894 83458,6950.19,96.107,573.749,570.361,0.0
55288.0,STARLINK-5311,PAYLOAD,2024-07-20 09:58:45,14.98332433,0.000245,69.9999,90.3832,268.1735,91.9144,-9.592e-05,-1.237e-05,0.0,0 STARLINK-5311,1 55288U 23010V   24202.41580256 -.00001237  00000-0 -95920-4 0  9999,2 55288  69.9999  90.3832 0002450 268.1735  91.9144 14.98332433 83806,6950.185,96.107,573.753,570.348,0.0
55288.0,STARLINK-5311,PAYLOAD,2024-07-20 21:11:42,14.98324984,0.0002442,70.0003,89.2029,265.1267,94.9614,1.7014e-05,1.1e-06,0.0,0 STARLINK-5311,1 55288U 23010V   24202.88312524  .00000110  00000-0  17014-4 0  9996,2 55288  70.0003  89.2029 0002442 265.1267  94.9614 14.98324984 83568,6950.208,96.107,573.771,570.376,0.0
55288.0,STARLINK-5311,PAYLOAD,2024-07-20 22:47:50,14.98314991,0.0002624,70.0005,89.0337,263.7448,96.3412,0.00024687,2.853e-05,0.0,0 STARLINK-5311,1 55288U 23010V   24202.94988490  .00002853  00000-0  24687-3 0  9993,2 55288  70.0005  89.0337 0002624 263.7448  96.3412 14.98314991 83881,6950.239,96.108,573.928,570.281,0.0
55288.0,STARLINK-5311,PAYLOAD,2024-07-21 02:00:06,14.98327083,0.0002452,70.0006,88.6994,260.873,99.2151,6.0465e-05,6.29e-06,0.0,0 STARLINK-5311,1 55288U 23010V   24203.08340328  .00000629  00000-0  60465-4 0  9995,2 55288  70.0006  88.6994 0002452 260.8730  99.2151 14.98327083 83908,6950.202,96.107,573.771,570.363,0.0
55288.0,STARLINK-5311,PAYLOAD,2024-07-21 21:13:42,14.98327848,0.0002712,70.0,86.6805,267.6461,92.4387,5.3181e-06,-3e-07,0.0,0 STARLINK-5311,1 55288U 23010V   24203.88452398 -.00000030  00000-0  53181-5 0  9999,2 55288  70.0000  86.6805 0002712 267.6461  92.4387 14.98327848 83710,6950.2,96.107,573.949,570.18,0.0
55288.0,STARLINK-5311,PAYLOAD,2024-07-22 02:02:06,14.98331927,0.0002656,70.0002,86.1744,263.7471,96.3386,3.5908e-05,3.36e-06,0.0,0 STARLINK-5311,1 55288U 23010V   24204.08480031  .00000336  00000-0  35908-4 0  9991,2 55288  70.0002  86.1744 0002656 263.7471  96.3386 14.98331927 84057,6950.187,96.107,573.898,570.206,0.0
55288.0,STARLINK-5311,PAYLOAD,2024-07-22 22:51:51,14.98336258,0.0002871,69.9998,83.9865,268.0793,92.0037,6.2945e-05,6.58e-06,0.0,0 STARLINK-5311,1 55288U 23010V   24204.95267516  .00000658  00000-0  62945-4 0  9996,2 55288  69.9998  83.9865 0002871 268.0793  92.0037 14.98336258 84183,6950.174,96.107,574.034,570.043,0.0
55288.0,STARLINK-5311,PAYLOAD,2024-07-23 02:04:06,14.98339218,0.0002846,70.0,83.6501,268.0392,92.0441,9.4335e-05,1.033e-05,0.0,0 STARLINK-5311,1 55288U 23010V   24205.08619179  .00001033  00000-0  94335-4 0  9993,2 55288  70.0000  83.6501 0002846 268.0392  92.0441 14.98339218 83896,6950.164,96.106,574.007,570.051,0.0
55288.0,STARLINK-5311,PAYLOAD,2024-07-23 22:53:52,14.98323044,0.0002699,70.0013,81.464,268.9207,91.1643,1.9523e-05,1.4e-06,0.0,0 STARLINK-5311,1 55288U 23010V   24205.95408406  .00000140  00000-0  19523-4 0  9992,2 55288  70.0013  81.4640 0002699 268.9207  91.1643 14.98323044 84334,6950.214,96.107,573.955,570.204,0.0
